STARLINK-36781          
1 67931U 26036AD  26068.81864402  .00451001  00000+0  20216-2 0  9991
2 67931  42.9991 248.7390 0002301 291.7567  68.3060 15.82155324  3695
STARLINK-36301          
1 67932U 26037A   26068.83334490  .00054996  00000+0  26213-3 0  9990
2 67932  42.9987 197.7006 0001837 274.4102  96.2984 15.82008831  3138
STARLINK-36852          
1 67933U 26037B   26068.83334490  .00086023  00000+0  40764-3 0  9994
2 67933  42.9988 197.6893 0001720 267.3279 107.6631 15.81982782  3221
STARLINK-36861          
1 67934U 26037C   26068.83334490  .00068640  00000+0  32632-3 0  9995
2 67934  42.9988 197.6791 0001681 251.0300 128.2469 15.81989879  3222
STARLINK-36860          
1 67935U 26037D   26068.83334490  .00079763  00000+0  37862-3 0  9994
2 67935  42.9985 197.6678 0001526 269.3857 114.1780 15.81972356  3223
STARLINK-36848          
1 67936U 26037E   26068.83334490  .00141181  00000+0  66415-3 0  9995
2 67936  42.9986 197.6455 0001734 276.1214 115.9769 15.81950440  3228
STARLINK-36370          
1 67937U 26037F   26068.83334490  .00147979  00000+0  69565-3 0  9996
2 67937  42.9987 197.6574 0002339 302.7127  85.1205 15.81943252  3229
STARLINK-36371          
1 67938U 26037G   26068.83334490  .00084769  00000+0  40186-3 0  9992
2 67938  42.9985 197.6347 0001720 266.9351 129.4388 15.81978998  3228
STARLINK-36246          
1 67939U 26037H   26068.83334490  .00182840  00000+0  85656-3 0  9993
2 67939  42.9985 197.6240 0002167 287.8842 112.7707 15.81916561  3132
STARLINK-36907          
1 67940U 26037J   26068.83334490  .00127036  00000+0  59865-3 0  9994
2 67940  42.9987 197.5910 0001648 282.2690 131.1918 15.81957162  3223
STARLINK-36927          
1 67941U 26037K   26068.83334490  .00120657  00000+0  56906-3 0  9990
2 67941  42.9989 197.5696 0001864 282.7769 139.2288 15.81959683  3228
STARLINK-36914          
1 67942U 26037L   26068.83334490  .00125499  00000+0  59178-3 0  9994
2 67942  42.9986 197.6126 0002046 278.4959 126.4199 15.81947894  3221
STARLINK-36851          
1 67943U 26037M   26068.83334490  .00141666  00000+0  66648-3 0  9999
2 67943  42.9986 197.6019 0001692 285.0591 124.1332 15.81947537  3223
STARLINK-36892          
1 67944U 26037N   26068.83334490  .00081205  00000+0  38500-3 0  9998
2 67944  42.9987 197.5811 0001825 284.2413 133.4831 15.81991496  3226
STARLINK-36908          
1 67945U 26037P   26068.83334490  .00117185  00000+0  55300-3 0  9993
2 67945  42.9989 197.5588 0001982 287.4449 138.8363 15.81958883  3220
STARLINK-36909          
1 67946U 26037Q   26068.83334490  .00053917  00000+0  25718-3 0  9996
2 67946  42.9988 197.5483 0001746 285.3242 145.2163 15.81999898  3221
