[{"OBJECT_NAME":"STARLINK-36781","OBJECT_ID":"2026-036AD","EPOCH":"2026-03-09T19:38:50.843328","MEAN_MOTION":15.82155324,"ECCENTRICITY":0.0002301,"INCLINATION":42.9991,"RA_OF_ASC_NODE":248.739,"ARG_OF_PERICENTER":291.7567,"MEAN_ANOMALY":68.306,"EPHEMERIS_TYPE":0,"CLASSIFICATION_TYPE":"U","NORAD_CAT_ID":67931,"ELEMENT_SET_NO":999,"REV_AT_EPOCH":369,"BSTAR":0.0020216,"MEAN_MOTION_DOT":0.00451001,"MEAN_MOTION_DDOT":0},{"OBJECT_NAME":"STARLINK-36301","OBJECT_ID":"2026-037A","EPOCH":"2026-03-09T20:00:00.999360","MEAN_MOTION":15.82008831,"ECCENTRICITY":0.0001837,"INCLINATION":42.9987,"RA_OF_ASC_NODE":197.7006,"ARG_OF_PERICENTER":274.4102,"MEAN_ANOMALY":96.2984,"EPHEMERIS_TYPE":0,"CLASSIFICATION_TYPE":"U","NORAD_CAT_ID":67932,"ELEMENT_SET_NO":999,"REV_AT_EPOCH":313,"BSTAR":0.00026213,"MEAN_MOTION_DOT":0.00054996,"MEAN_MOTION_DDOT":0},{"OBJECT_NAME":"STARLINK-36852","OBJECT_ID":"2026-037B","EPOCH":"2026-03-09T20:00:00.999360","MEAN_MOTION":15.81982782,"ECCENTRICITY":0.000172,"INCLINATION":42.9988,"RA_OF_ASC_NODE":197.6893,"ARG_OF_PERICENTER":267.3279,"MEAN_ANOMALY":107.6631,"EPHEMERIS_TYPE":0,"CLASSIFICATION_TYPE":"U","NORAD_CAT_ID":67933,"ELEMENT_SET_NO":999,"REV_AT_EPOCH":322,"BSTAR":0.00040764,"MEAN_MOTION_DOT":0.00086023,"MEAN_MOTION_DDOT":0},{"OBJECT_NAME":"STARLINK-36861","OBJECT_ID":"2026-037C","EPOCH":"2026-03-09T20:00:00.999360","MEAN_MOTION":15.81989879,"ECCENTRICITY":0.0001681,"INCLINATION":42.9988,"RA_OF_ASC_NODE":197.6791,"ARG_OF_PERICENTER":251.03,"MEAN_ANOMALY":128.2469,"EPHEMERIS_TYPE":0,"CLASSIFICATION_TYPE":"U","NORAD_CAT_ID":67934,"ELEMENT_SET_NO":999,"REV_AT_EPOCH":322,"BSTAR":0.00032632,"MEAN_MOTION_DOT":0.0006864,"MEAN_MOTION_DDOT":0},{"OBJECT_NAME":"STARLINK-36860","OBJECT_ID":"2026-037D","EPOCH":"2026-03-09T20:00:00.999360","MEAN_MOTION":15.81972356,"ECCENTRICITY":0.0001526,"INCLINATION":42.9985,"RA_OF_ASC_NODE":197.6678,"ARG_OF_PERICENTER":269.3857,"MEAN_ANOMALY":114.178,"EPHEMERIS_TYPE":0,"CLASSIFICATION_TYPE":"U","NORAD_CAT_ID":67935,"ELEMENT_SET_NO":999,"REV_AT_EPOCH":322,"BSTAR":0.00037862,"MEAN_MOTION_DOT":0.00079763,"MEAN_MOTION_DDOT":0},{"OBJECT_NAME":"STARLINK-36848","OBJECT_ID":"2026-037E","EPOCH":"2026-03-09T20:00:00.999360","MEAN_MOTION":15.8195044,"ECCENTRICITY":0.0001734,"INCLINATION":42.9986,"RA_OF_ASC_NODE":197.6455,"ARG_OF_PERICENTER":276.1214,"MEAN_ANOMALY":115.9769,"EPHEMERIS_TYPE":0,"CLASSIFICATION_TYPE":"U","NORAD_CAT_ID":67936,"ELEMENT_SET_NO":999,"REV_AT_EPOCH":322,"BSTAR":0.00066415,"MEAN_MOTION_DOT":0.00141181,"MEAN_MOTION_DDOT":0},{"OBJECT_NAME":"STARLINK-36370","OBJECT_ID":"2026-037F","EPOCH":"2026-03-09T20:00:00.999360","MEAN_MOTION":15.81943252,"ECCENTRICITY":0.0002339,"INCLINATION":42.9987,"RA_OF_ASC_NODE":197.6574,"ARG_OF_PERICENTER":302.7127,"MEAN_ANOMALY":85.1205,"EPHEMERIS_TYPE":0,"CLASSIFICATION_TYPE":"U","NORAD_CAT_ID":67937,"ELEMENT_SET_NO":999,"REV_AT_EPOCH":322,"BSTAR":0.00069565,"MEAN_MOTION_DOT":0.00147979,"MEAN_MOTION_DDOT":0},{"OBJECT_NAME":"STARLINK-36371","OBJECT_ID":"2026-037G","EPOCH":"2026-03-09T20:00:00.999360","MEAN_MOTION":15.81978998,"ECCENTRICITY":0.000172,"INCLINATION":42.9985,"RA_OF_ASC_NODE":197.6347,"ARG_OF_PERICENTER":266.9351,"MEAN_ANOMALY":129.4388,"EPHEMERIS_TYPE":0,"CLASSIFICATION_TYPE":"U","NORAD_CAT_ID":67938,"ELEMENT_SET_NO":999,"REV_AT_EPOCH":322,"BSTAR":0.00040186,"MEAN_MOTION_DOT":0.00084769,"MEAN_MOTION_DDOT":0},{"OBJECT_NAME":"STARLINK-36246","OBJECT_ID":"2026-037H","EPOCH":"2026-03-09T20:00:00.999360","MEAN_MOTION":15.81916561,"ECCENTRICITY":0.0002167,"INCLINATION":42.9985,"RA_OF_ASC_NODE":197.624,"ARG_OF_PERICENTER":287.8842,"MEAN_ANOMALY":112.7707,"EPHEMERIS_TYPE":0,"CLASSIFICATION_TYPE":"U","NORAD_CAT_ID":67939,"ELEMENT_SET_NO":999,"REV_AT_EPOCH":313,"BSTAR":0.00085656,"MEAN_MOTION_DOT":0.0018284,"MEAN_MOTION_DDOT":0},{"OBJECT_NAME":"STARLINK-36907","OBJECT_ID":"2026-037J","EPOCH":"2026-03-09T20:00:00.999360","MEAN_MOTION":15.81957162,"ECCENTRICITY":0.0001648,"INCLINATION":42.9987,"RA_OF_ASC_NODE":197.591,"ARG_OF_PERICENTER":282.269,"MEAN_ANOMALY":131.1918,"EPHEMERIS_TYPE":0,"CLASSIFICATION_TYPE":"U","NORAD_CAT_ID":67940,"ELEMENT_SET_NO":999,"REV_AT_EPOCH":322,"BSTAR":0.00059865,"MEAN_MOTION_DOT":0.00127036,"MEAN_MOTION_DDOT":0},{"OBJECT_NAME":"STARLINK-36927","OBJECT_ID":"2026-037K","EPOCH":"2026-03-09T20:00:00.999360","MEAN_MOTION":15.81959683,"ECCENTRICITY":0.0001864,"INCLINATION":42.9989,"RA_OF_ASC_NODE":197.5696,"ARG_OF_PERICENTER":282.7769,"MEAN_ANOMALY":139.2288,"EPHEMERIS_TYPE":0,"CLASSIFICATION_TYPE":"U","NORAD_CAT_ID":67941,"ELEMENT_SET_NO":999,"REV_AT_EPOCH":322,"BSTAR":0.00056906,"MEAN_MOTION_DOT":0.00120657,"MEAN_MOTION_DDOT":0},{"OBJECT_NAME":"STARLINK-36914","OBJECT_ID":"2026-037L","EPOCH":"2026-03-09T20:00:00.999360","MEAN_MOTION":15.81947894,"ECCENTRICITY":0.0002046,"INCLINATION":42.9986,"RA_OF_ASC_NODE":197.6126,"ARG_OF_PERICENTER":278.4959,"MEAN_ANOMALY":126.4199,"EPHEMERIS_TYPE":0,"CLASSIFICATION_TYPE":"U","NORAD_CAT_ID":67942,"ELEMENT_SET_NO":999,"REV_AT_EPOCH":322,"BSTAR":0.00059178,"MEAN_MOTION_DOT":0.00125499,"MEAN_MOTION_DDOT":0},{"OBJECT_NAME":"STARLINK-36851","OBJECT_ID":"2026-037M","EPOCH":"2026-03-09T20:00:00.999360","MEAN_MOTION":15.81947537,"ECCENTRICITY":0.0001692,"INCLINATION":42.9986,"RA_OF_ASC_NODE":197.6019,"ARG_OF_PERICENTER":285.0591,"MEAN_ANOMALY":124.1332,"EPHEMERIS_TYPE":0,"CLASSIFICATION_TYPE":"U","NORAD_CAT_ID":67943,"ELEMENT_SET_NO":999,"REV_AT_EPOCH":322,"BSTAR":0.00066648,"MEAN_MOTION_DOT":0.00141666,"MEAN_MOTION_DDOT":0},{"OBJECT_NAME":"STARLINK-36892","OBJECT_ID":"2026-037N","EPOCH":"2026-03-09T20:00:00.999360","MEAN_MOTION":15.81991496,"ECCENTRICITY":0.0001825,"INCLINATION":42.9987,"RA_OF_ASC_NODE":197.5811,"ARG_OF_PERICENTER":284.2413,"MEAN_ANOMALY":133.4831,"EPHEMERIS_TYPE":0,"CLASSIFICATION_TYPE":"U","NORAD_CAT_ID":67944,"ELEMENT_SET_NO":999,"REV_AT_EPOCH":322,"BSTAR":0.000385,"MEAN_MOTION_DOT":0.00081205,"MEAN_MOTION_DDOT":0},{"OBJECT_NAME":"STARLINK-36908","OBJECT_ID":"2026-037P","EPOCH":"2026-03-09T20:00:00.999360","MEAN_MOTION":15.81958883,"ECCENTRICITY":0.0001982,"INCLINATION":42.9989,"RA_OF_ASC_NODE":197.5588,"ARG_OF_PERICENTER":287.4449,"MEAN_ANOMALY":138.8363,"EPHEMERIS_TYPE":0,"CLASSIFICATION_TYPE":"U","NORAD_CAT_ID":67945,"ELEMENT_SET_NO":999,"REV_AT_EPOCH":322,"BSTAR":0.000553,"MEAN_MOTION_DOT":0.00117185,"MEAN_MOTION_DDOT":0},{"OBJECT_NAME":"STARLINK-36909","OBJECT_ID":"2026-037Q","EPOCH":"2026-03-09T20:00:00.999360","MEAN_MOTION":15.81999898,"ECCENTRICITY":0.0001746,"INCLINATION":42.9988,"RA_OF_ASC_NODE":197.5483,"ARG_OF_PERICENTER":285.3242,"MEAN_ANOMALY":145.2163,"EPHEMERIS_TYPE":0,"CLASSIFICATION_TYPE":"U","NORAD_CAT_ID":67946,"ELEMENT_SET_NO":999,"REV_AT_EPOCH":322,"BSTAR":0.00025718,"MEAN_MOTION_DOT":0.00053917,"MEAN_MOTION_DDOT":0}]
